{"type": "FeatureCollection", "features": [ {"type": "Feature", "properties": {"norad_id": 47013, "name": "FENGYUN 1C DEB", "group": "fengyun-1c-debris", "lat": -13.097203552111443, "lon": 56.481585746235126, "alt_km": 853.1038728619151, "timestamp": "2025-12-10T14:53:37.381168+00:00", "meta": {"OBJECT_NAME": "FENGYUN 1C DEB", "OBJECT_ID": "1999-025FAP", "EPOCH": "2025-11-16T11:10:59.954016", "MEAN_MOTION": 14.24672933, "ECCENTRICITY": 0.00559466, "INCLINATION": 98.0819, "RA_OF_ASC_NODE": 32.3431, "ARG_OF_PERICENTER": 238.0397, "MEAN_ANOMALY": 121.5338, "EPHEMERIS_TYPE": 0, "CLASSIFICATION_TYPE": "U", "NORAD_CAT_ID": 47013, "ELEMENT_SET_NO": 999, "REV_AT_EPOCH": 72885, "BSTAR": 0.0028202138, "MEAN_MOTION_DOT": 6.632e-05, "MEAN_MOTION_DDOT": 0}, "tle": {"line1": "1 47013U 99025FAP 25320.46597169  .00006632  00000+0  28202-2 0  9991", "line2": "2 47013  98.0819  32.3431 0055946 238.0397 121.5338 14.24672933728853"}}, "geometry": {"type": "Point", "coordinates": [56.481585746235126, -13.097203552111443]}}, {"type": "Feature", "properties": {"norad_id": 47015, "name": "FENGYUN 1C DEB", "group": "fengyun-1c-debris", "lat": 59.921850737727354, "lon": 25.776095171260465, "alt_km": 534.0758644606531, "timestamp": "2025-12-10T14:53:37.381177+00:00", "meta": {"OBJECT_NAME": "FENGYUN 1C DEB", "OBJECT_ID": "1999-025FAR", "EPOCH": "2025-12-07T02:39:25.768224", "MEAN_MOTION": 14.87223256, "ECCENTRICITY": 0.01761697, "INCLINATION": 98.7113, "RA_OF_ASC_NODE": 37.2769, "ARG_OF_PERICENTER": 130.5796, "MEAN_ANOMALY": 231.0902, "EPHEMERIS_TYPE": 0, "CLASSIFICATION_TYPE": "U", "NORAD_CAT_ID": 47015, "ELEMENT_SET_NO": 999, "REV_AT_EPOCH": 64298, "BSTAR": 0.0012529524, "MEAN_MOTION_DOT": 0.00014972, "MEAN_MOTION_DDOT": 0}, "tle": {"line1": "1 47015U 99025FAR 25341.11071491  .00014972  00000+0  12530-2 0  9996", "line2": "2 47015  98.7113  37.2769 0176169 130.5796 231.0902 14.87223256642989"}}, "geometry": {"type": "Point", "coordinates": [25.776095171260465, 59.921850737727354]}}, {"type": "Feature", "properties": {"norad_id": 47025, "name": "FENGYUN 1C DEB", "group": "fengyun-1c-debris", "lat": -0.35166187412157474, "lon": -168.92775932980362, "alt_km": 712.0650906514838, "timestamp": "2025-12-10T14:53:37.381186+00:00", "meta": {"OBJECT_NAME": "FENGYUN 1C DEB", "OBJECT_ID": "1999-025FBB", "EPOCH": "2025-12-09T20:42:01.885248", "MEAN_MOTION": 14.46221932, "ECCENTRICITY": 0.00406708, "INCLINATION": 99.0334, "RA_OF_ASC_NODE": 190.2091, "ARG_OF_PERICENTER": 5.95, "MEAN_ANOMALY": 9.3678, "EPHEMERIS_TYPE": 0, "CLASSIFICATION_TYPE": "U", "NORAD_CAT_ID": 47025, "ELEMENT_SET_NO": 999, "REV_AT_EPOCH": 62700, "BSTAR": 0.0033112033, "MEAN_MOTION_DOT": 0.00011941, "MEAN_MOTION_DDOT": 0}, "tle": {"line1": "1 47025U 99025FBB 25343.86252182  .00011941  00000+0  33112-2 0  9991", "line2": "2 47025  99.0334 190.2091 0040670   5.9500   9.3678 14.46221932627008"}}, "geometry": {"type": "Point", "coordinates": [-168.92775932980362, -0.35166187412157474]}}, {"type": "Feature", "properties": {"norad_id": 47036, "name": "FENGYUN 1C DEB", "group": "fengyun-1c-debris", "lat": 37.86822152005303, "lon": 21.22475819607349, "alt_km": 817.6650485486589, "timestamp": "2025-12-10T14:53:37.381195+00:00", "meta": {"OBJECT_NAME": "FENGYUN 1C DEB", "OBJECT_ID": "1999-025FBN", "EPOCH": "2025-12-08T08:42:19.355328", "MEAN_MOTION": 14.15172568, "ECCENTRICITY": 0.00687855, "INCLINATION": 98.7227, "RA_OF_ASC_NODE": 25.8733, "ARG_OF_PERICENTER": 109.9906, "MEAN_ANOMALY": 312.7639, "EPHEMERIS_TYPE": 0, "CLASSIFICATION_TYPE": "U", "NORAD_CAT_ID": 47036, "ELEMENT_SET_NO": 999, "REV_AT_EPOCH": 59865, "BSTAR": 0.00025817541, "MEAN_MOTION_DOT": 4.7e-06, "MEAN_MOTION_DDOT": 0}, "tle": {"line1": "1 47036U 99025FBN 25342.36272402  .00000470  00000+0  25818-3 0  9994", "line2": "2 47036  98.7227  25.8733 0068785 109.9906 312.7639 14.15172568598657"}}, "geometry": {"type": "Point", "coordinates": [21.22475819607349, 37.86822152005303]}}, {"type": "Feature", "properties": {"norad_id": 47040, "name": "FENGYUN 1C DEB", "group": "fengyun-1c-debris", "lat": -68.85908080385396, "lon": 43.06020514384965, "alt_km": 834.010997711548, "timestamp": "2025-12-10T14:53:37.381204+00:00", "meta": {"OBJECT_NAME": "FENGYUN 1C DEB", "OBJECT_ID": "1999-025FBS", "EPOCH": "2025-12-03T10:58:10.539552", "MEAN_MOTION": 14.06462065, "ECCENTRICITY": 0.0063058, "INCLINATION": 100.2943, "RA_OF_ASC_NODE": 242.958, "ARG_OF_PERICENTER": 257.8027, "MEAN_ANOMALY": 101.6069, "EPHEMERIS_TYPE": 0, "CLASSIFICATION_TYPE": "U", "NORAD_CAT_ID": 47040, "ELEMENT_SET_NO": 999, "REV_AT_EPOCH": 88978, "BSTAR": 0.0008721929, "MEAN_MOTION_DOT": 1.412e-05, "MEAN_MOTION_DDOT": 0}, "tle": {"line1": "1 47040U 99025FBS 25337.45706643  .00001412  00000+0  87219-3 0  9992", "line2": "2 47040 100.2943 242.9580 0063058 257.8027 101.6069 14.06462065889786"}}, "geometry": {"type": "Point", "coordinates": [43.06020514384965, -68.85908080385396]}}, {"type": "Feature", "properties": {"norad_id": 47041, "name": "FENGYUN 1C DEB", "group": "fengyun-1c-debris", "lat": 54.53260954514696, "lon": -157.25415331870693, "alt_km": 536.3648017047044, "timestamp": "2025-12-10T14:53:37.381213+00:00", "meta": {"OBJECT_NAME": "FENGYUN 1C DEB", "OBJECT_ID": "1999-025FBT", "EPOCH": "2025-12-10T08:02:01.721760", "MEAN_MOTION": 15.06938072, "ECCENTRICITY": 0.00146767, "INCLINATION": 98.2561, "RA_OF_ASC_NODE": 10.6796, "ARG_OF_PERICENTER": 192.5756, "MEAN_ANOMALY": 182.4579, "EPHEMERIS_TYPE": 0, "CLASSIFICATION_TYPE": "U", "NORAD_CAT_ID": 47041, "ELEMENT_SET_NO": 999, "REV_AT_EPOCH": 71153, "BSTAR": 0.002962951, "MEAN_MOTION_DOT": 0.00044576, "MEAN_MOTION_DDOT": 0}, "tle": {"line1": "1 47041U 99025FBT 25344.33474215  .00044576  00000+0  29630-2 0  9995", "line2": "2 47041  98.2561  10.6796 0014676 192.5756 182.4579 15.06938072711531"}}, "geometry": {"type": "Point", "coordinates": [-157.25415331870693, 54.53260954514696]}}, {"type": "Feature", "properties": {"norad_id": 47042, "name": "FENGYUN 1C DEB", "group": "fengyun-1c-debris", "lat": 76.4010800078499, "lon": -158.85678333560662, "alt_km": 777.5384005490287, "timestamp": "2025-12-10T14:53:37.381222+00:00", "meta": {"OBJECT_NAME": "FENGYUN 1C DEB", "OBJECT_ID": "1999-025FBU", "EPOCH": "2025-12-08T23:46:33.824928", "MEAN_MOTION": 14.22828357, "ECCENTRICITY": 0.0055479, "INCLINATION": 99.0007, "RA_OF_ASC_NODE": 240.4137, "ARG_OF_PERICENTER": 45.2205, "MEAN_ANOMALY": 330.1771, "EPHEMERIS_TYPE": 0, "CLASSIFICATION_TYPE": "U", "NORAD_CAT_ID": 47042, "ELEMENT_SET_NO": 999, "REV_AT_EPOCH": 62468, "BSTAR": 0.00040267, "MEAN_MOTION_DOT": 8.72e-06, "MEAN_MOTION_DDOT": 0}, "tle": {"line1": "1 47042U 99025FBU 25342.99066927  .00000872  00000+0  40267-3 0  9994", "line2": "2 47042  99.0007 240.4137 0055479  45.2205 330.1771 14.22828357624683"}}, "geometry": {"type": "Point", "coordinates": [-158.85678333560662, 76.4010800078499]}}, {"type": "Feature", "properties": {"norad_id": 47100, "name": "FENGYUN 1C DEB", "group": "fengyun-1c-debris", "lat": -12.192251067420393, "lon": 165.95864663597212, "alt_km": 663.5800683421385, "timestamp": "2025-12-10T14:53:37.381231+00:00", "meta": {"OBJECT_NAME": "FENGYUN 1C DEB", "OBJECT_ID": "1999-025FBY", "EPOCH": "2025-12-09T10:49:19.098336", "MEAN_MOTION": 14.51345237, "ECCENTRICITY": 0.00893058, "INCLINATION": 99.0205, "RA_OF_ASC_NODE": 162.7375, "ARG_OF_PERICENTER": 3.5031, "MEAN_ANOMALY": 356.6768, "EPHEMERIS_TYPE": 0, "CLASSIFICATION_TYPE": "U", "NORAD_CAT_ID": 47100, "ELEMENT_SET_NO": 999, "REV_AT_EPOCH": 26720, "BSTAR": 0.0024751612, "MEAN_MOTION_DOT": 0.00010344, "MEAN_MOTION_DDOT": 0}, "tle": {"line1": "1 47100U 99025FBY 25343.45091549  .00010344  00000+0  24752-2 0  9994", "line2": "2 47100  99.0205 162.7375 0089305   3.5031 356.6768 14.51345237267200"}}, "geometry": {"type": "Point", "coordinates": [165.95864663597212, -12.192251067420393]}}, {"type": "Feature", "properties": {"norad_id": 47104, "name": "FENGYUN 1C DEB", "group": "fengyun-1c-debris", "lat": 15.186433267086484, "lon": -163.39890274003452, "alt_km": 857.3281103189711, "timestamp": "2025-12-10T14:53:37.381240+00:00", "meta": {"OBJECT_NAME": "FENGYUN 1C DEB", "OBJECT_ID": "1999-025FCC", "EPOCH": "2025-12-05T07:14:15.762912", "MEAN_MOTION": 14.19416271, "ECCENTRICITY": 0.00406545, "INCLINATION": 98.9092, "RA_OF_ASC_NODE": 8.8127, "ARG_OF_PERICENTER": 358.5803, "MEAN_ANOMALY": 1.5251, "EPHEMERIS_TYPE": 0, "CLASSIFICATION_TYPE": "U", "NORAD_CAT_ID": 47104, "ELEMENT_SET_NO": 999, "REV_AT_EPOCH": 62267, "BSTAR": 0.00037828604, "MEAN_MOTION_DOT": 7.57e-06, "MEAN_MOTION_DDOT": 0}, "tle": {"line1": "1 47104U 99025FCC 25339.30157133  .00000757  00000+0  37829-3 0  9996", "line2": "2 47104  98.9092   8.8127 0040654 358.5803   1.5251 14.19416271622675"}}, "geometry": {"type": "Point", "coordinates": [-163.39890274003452, 15.186433267086484]}}]}